start=new Date('2022-11-16T00:00:00.000Z').valueOf();
sats=[{"INCLINATION":"53.0534","CLASSIFICATION_TYPE":"U","EPHEMERIS_TYPE":"0","MEAN_ELEMENT_THEORY":"SGP4","ECCENTRICITY":"0.00014440","ARG_OF_PERICENTER":"120.8123","TLE_LINE1":"1 47643U 21012Z   22319.71750820  .00001439  00000-0  11551-3 0  9990","SEMIMAJOR_AXIS":"6925.373","MEAN_MOTION":"15.06392139","MEAN_MOTION_DDOT":"0.0000000000000","OBJECT_ID":"2021-012Z","PERIOD":"95.593","RCS_SIZE":"LARGE","OBJECT_NAME":"STARLINK-2022","LAUNCH_DATE":"2021-02-16","BSTAR":"0.00011551000000","DECAY_DATE":null,"MEAN_ANOMALY":"239.3008","EPOCH":"2022-11-15T17:13:12.708480","NORAD_CAT_ID":"47643","SITE":"AFETR","REV_AT_EPOCH":"9789","TLE_LINE2":"2 47643  53.0534  83.4003 0001444 120.8123 239.3008 15.06392139 97891","RA_OF_ASC_NODE":"83.4003","FILE":"3657961","TIME_SYSTEM":"UTC","REF_FRAME":"TEME","APOAPSIS":"548.238","PERIAPSIS":"546.238","MEAN_MOTION_DOT":"0.00001439","ELEMENT_SET_NO":"999","COUNTRY_CODE":"US","CENTER_NAME":"EARTH","GP_ID":"217903290","OBJECT_TYPE":"PAYLOAD"},{"TLE_LINE1":"1 47644U 21012AA  22319.66405744  .00001308  00000-0  10667-3 0  9999","ARG_OF_PERICENTER":"73.5748","ECCENTRICITY":"0.00014660","EPHEMERIS_TYPE":"0","CLASSIFICATION_TYPE":"U","INCLINATION":"53.0548","MEAN_ELEMENT_THEORY":"SGP4","PERIOD":"95.592","OBJECT_ID":"2021-012AA","LAUNCH_DATE":"2021-02-16","RCS_SIZE":"LARGE","OBJECT_NAME":"STARLINK-2026","MEAN_MOTION":"15.06399832","SEMIMAJOR_AXIS":"6925.349","MEAN_MOTION_DDOT":"0.0000000000000","REV_AT_EPOCH":"9761","SITE":"AFETR","FILE":"3657961","TLE_LINE2":"2 47644  53.0548 103.6406 0001466  73.5748 286.5402 15.06399832 97619","RA_OF_ASC_NODE":"103.6406","BSTAR":"0.00010667000000","NORAD_CAT_ID":"47644","MEAN_ANOMALY":"286.5402","EPOCH":"2022-11-15T15:56:14.562816","DECAY_DATE":null,"MEAN_MOTION_DOT":"0.00001308","OBJECT_TYPE":"PAYLOAD","GP_ID":"217903540","COUNTRY_CODE":"US","ELEMENT_SET_NO":"999","CENTER_NAME":"EARTH","TIME_SYSTEM":"UTC","REF_FRAME":"TEME","PERIAPSIS":"546.199","APOAPSIS":"548.229"},{"APOAPSIS":"548.165","PERIAPSIS":"546.304","REF_FRAME":"TEME","TIME_SYSTEM":"UTC","OBJECT_TYPE":"PAYLOAD","ELEMENT_SET_NO":"999","COUNTRY_CODE":"US","CENTER_NAME":"EARTH","GP_ID":"217904791","MEAN_MOTION_DOT":"0.00000634","MEAN_ANOMALY":"262.7572","EPOCH":"2022-11-15T14:51:16.597440","NORAD_CAT_ID":"47645","DECAY_DATE":null,"BSTAR":"0.00006143300000","FILE":"3657961","TLE_LINE2":"2 47645  53.0552  74.0897 0001344  97.3570 262.7572 15.06393193 97991","RA_OF_ASC_NODE":"74.0897","REV_AT_EPOCH":"9799","SITE":"AFETR","MEAN_MOTION_DDOT":"0.0000000000000","SEMIMAJOR_AXIS":"6925.369","MEAN_MOTION":"15.06393193","RCS_SIZE":"LARGE","OBJECT_NAME":"STARLINK-2027","LAUNCH_DATE":"2021-02-16","PERIOD":"95.593","OBJECT_ID":"2021-012AB","MEAN_ELEMENT_THEORY":"SGP4","EPHEMERIS_TYPE":"0","CLASSIFICATION_TYPE":"U","INCLINATION":"53.0552","TLE_LINE1":"1 47645U 21012AB  22319.61894210  .00000634  00000-0  61433-4 0  9994","ECCENTRICITY":"0.00013440","ARG_OF_PERICENTER":"97.3570"},{"EPHEMERIS_TYPE":"0","CLASSIFICATION_TYPE":"U","INCLINATION":"53.0542","MEAN_ELEMENT_THEORY":"SGP4","TLE_LINE1":"1 47646U 21012AC  22319.73827155  .00000382  00000-0  44541-4 0  9993","ARG_OF_PERICENTER":"74.3173","ECCENTRICITY":"0.00013660","MEAN_MOTION":"15.06395000","SEMIMAJOR_AXIS":"6925.364","MEAN_MOTION_DDOT":"0.0000000000000","PERIOD":"95.592","OBJECT_ID":"2021-012AC","LAUNCH_DATE":"2021-02-16","RCS_SIZE":"LARGE","OBJECT_NAME":"STARLINK-2028","BSTAR":"0.00004454100000","NORAD_CAT_ID":"47646","EPOCH":"2022-11-15T17:43:06.661920","MEAN_ANOMALY":"285.7967","DECAY_DATE":null,"REV_AT_EPOCH":"9850","SITE":"AFETR","FILE":"3657961","TLE_LINE2":"2 47646  53.0542  38.5477 0001366  74.3173 285.7967 15.06395000 98508","RA_OF_ASC_NODE":"38.5477","REF_FRAME":"TEME","TIME_SYSTEM":"UTC","PERIAPSIS":"546.283","APOAPSIS":"548.175","MEAN_MOTION_DOT":"0.00000382","OBJECT_TYPE":"PAYLOAD","GP_ID":"217904542","ELEMENT_SET_NO":"999","COUNTRY_CODE":"US","CENTER_NAME":"EARTH"},{"RA_OF_ASC_NODE":"103.5931","TLE_LINE2":"2 47647  53.0553 103.5931 0001774  98.5261 261.5930 15.06404993 97613","FILE":"3657961","SITE":"AFETR","REV_AT_EPOCH":"9761","DECAY_DATE":null,"NORAD_CAT_ID":"47647","EPOCH":"2022-11-15T16:12:09.923040","MEAN_ANOMALY":"261.5930","BSTAR":"0.00002685800000","GP_ID":"217903790","COUNTRY_CODE":"US","CENTER_NAME":"EARTH","ELEMENT_SET_NO":"999","OBJECT_TYPE":"PAYLOAD","MEAN_MOTION_DOT":"0.00000118","PERIAPSIS":"545.970","APOAPSIS":"548.427","REF_FRAME":"TEME","TIME_SYSTEM":"UTC","ARG_OF_PERICENTER":"98.5261","ECCENTRICITY":"0.00017740","TLE_LINE1":"1 47647U 21012AD  22319.67511485  .00000118  00000-0  26858-4 0  9991","MEAN_ELEMENT_THEORY":"SGP4","INCLINATION":"53.0553","EPHEMERIS_TYPE":"0","CLASSIFICATION_TYPE":"U","LAUNCH_DATE":"2021-02-16","RCS_SIZE":"LARGE","OBJECT_NAME":"STARLINK-2030","OBJECT_ID":"2021-012AD","PERIOD":"95.592","MEAN_MOTION_DDOT":"0.0000000000000","MEAN_MOTION":"15.06404993","SEMIMAJOR_AXIS":"6925.333"},{"PERIAPSIS":"546.323","APOAPSIS":"548.164","TIME_SYSTEM":"UTC","REF_FRAME":"TEME","OBJECT_TYPE":"PAYLOAD","GP_ID":"217904040","COUNTRY_CODE":"US","CENTER_NAME":"EARTH","ELEMENT_SET_NO":"999","MEAN_MOTION_DOT":"0.00000982","NORAD_CAT_ID":"47648","EPOCH":"2022-11-15T19:09:59.370912","MEAN_ANOMALY":"284.6770","DECAY_DATE":null,"BSTAR":"0.00008483400000","RA_OF_ASC_NODE":"83.0395","TLE_LINE2":"2 47648  53.0557  83.0395 0001329  75.4366 284.6770 15.06390225 97913","FILE":"3657961","REV_AT_EPOCH":"9791","SITE":"AFETR","MEAN_MOTION_DDOT":"0.0000000000000","MEAN_MOTION":"15.06390225","SEMIMAJOR_AXIS":"6925.379","LAUNCH_DATE":"2021-02-16","OBJECT_NAME":"STARLINK-2031","RCS_SIZE":"MEDIUM","PERIOD":"95.593","OBJECT_ID":"2021-012AE","MEAN_ELEMENT_THEORY":"SGP4","CLASSIFICATION_TYPE":"U","EPHEMERIS_TYPE":"0","INCLINATION":"53.0557","TLE_LINE1":"1 47648U 21012AE  22319.79860383  .00000982  00000-0  84834-4 0  9996","ARG_OF_PERICENTER":"75.4366","ECCENTRICITY":"0.00013290"},{"MEAN_MOTION_DOT":"0.00000154","ELEMENT_SET_NO":"999","COUNTRY_CODE":"US","CENTER_NAME":"EARTH","GP_ID":"217904292","OBJECT_TYPE":"PAYLOAD","REF_FRAME":"TEME","TIME_SYSTEM":"UTC","APOAPSIS":"548.037","PERIAPSIS":"546.512","SITE":"AFETR","REV_AT_EPOCH":"9790","TLE_LINE2":"2 47649  53.0550  83.3235 0001101  84.2481 275.8633 15.06380220 97900","FILE":"3657961","RA_OF_ASC_NODE":"83.3235","BSTAR":"0.00002925000000","DECAY_DATE":null,"MEAN_ANOMALY":"275.8633","EPOCH":"2022-11-15T17:39:45.497664","NORAD_CAT_ID":"47649","OBJECT_ID":"2021-012AF","PERIOD":"95.593","OBJECT_NAME":"STARLINK-2032","RCS_SIZE":"LARGE","LAUNCH_DATE":"2021-02-16","SEMIMAJOR_AXIS":"6925.409","MEAN_MOTION":"15.06380220","MEAN_MOTION_DDOT":"0.0000000000000","ECCENTRICITY":"0.00011010","ARG_OF_PERICENTER":"84.2481","TLE_LINE1":"1 47649U 21012AF  22319.73594326  .00000154  00000-0  29250-4 0  9994","INCLINATION":"53.0550","EPHEMERIS_TYPE":"0","CLASSIFICATION_TYPE":"U","MEAN_ELEMENT_THEORY":"SGP4"},{"MEAN_MOTION_DDOT":"0.0000000000000","MEAN_MOTION":"15.06434263","SEMIMAJOR_AXIS":"6925.244","LAUNCH_DATE":"2021-02-16","OBJECT_NAME":"STARLINK-2033","RCS_SIZE":"LARGE","PERIOD":"95.590","OBJECT_ID":"2021-012AG","MEAN_ELEMENT_THEORY":"SGP4","CLASSIFICATION_TYPE":"U","EPHEMERIS_TYPE":"0","INCLINATION":"53.0559","TLE_LINE1":"1 47650U 21012AG  22319.72118078 -.00008798  00000-0 -57194-3 0  9992","ARG_OF_PERICENTER":"113.8464","ECCENTRICITY":"0.00019040","PERIAPSIS":"545.790","APOAPSIS":"548.427","REF_FRAME":"TEME","TIME_SYSTEM":"UTC","OBJECT_TYPE":"PAYLOAD","GP_ID":"217905042","COUNTRY_CODE":"US","ELEMENT_SET_NO":"999","CENTER_NAME":"EARTH","MEAN_MOTION_DOT":"-0.00008798","NORAD_CAT_ID":"47650","MEAN_ANOMALY":"246.2725","EPOCH":"2022-11-15T17:18:30.019392","DECAY_DATE":null,"BSTAR":"-0.00057194000000","RA_OF_ASC_NODE":"83.3903","TLE_LINE2":"2 47650  53.0559  83.3903 0001904 113.8464 246.2725 15.06434263 97882","FILE":"3657961","REV_AT_EPOCH":"9788","SITE":"AFETR"},{"APOAPSIS":"548.158","PERIAPSIS":"546.286","TIME_SYSTEM":"UTC","REF_FRAME":"TEME","OBJECT_TYPE":"PAYLOAD","COUNTRY_CODE":"US","CENTER_NAME":"EARTH","ELEMENT_SET_NO":"999","GP_ID":"217903291","MEAN_MOTION_DOT":"0.00000551","EPOCH":"2022-11-15T16:38:42.511776","MEAN_ANOMALY":"257.1566","NORAD_CAT_ID":"47651","DECAY_DATE":null,"BSTAR":"0.00005589400000","TLE_LINE2":"2 47651  53.0545 103.5584 0001352 102.9574 257.1566 15.06397287 97615","FILE":"3657961","RA_OF_ASC_NODE":"103.5584","REV_AT_EPOCH":"9761","SITE":"AFETR","MEAN_MOTION_DDOT":"0.0000000000000","SEMIMAJOR_AXIS":"6925.357","MEAN_MOTION":"15.06397287","OBJECT_NAME":"STARLINK-2035","RCS_SIZE":"LARGE","LAUNCH_DATE":"2021-02-16","PERIOD":"95.592","OBJECT_ID":"2021-012AH","MEAN_ELEMENT_THEORY":"SGP4","EPHEMERIS_TYPE":"0","CLASSIFICATION_TYPE":"U","INCLINATION":"53.0545","TLE_LINE1":"1 47651U 21012AH  22319.69354759  .00000551  00000-0  55894-4 0  9990","ECCENTRICITY":"0.00013520","ARG_OF_PERICENTER":"102.9574"},{"TLE_LINE2":"2 47652  53.0547 103.1029 0001407  86.8691 273.2459 15.06389953 97621","FILE":"3657961","RA_OF_ASC_NODE":"103.1029","REV_AT_EPOCH":"9762","SITE":"AFETR","NORAD_CAT_ID":"47652","EPOCH":"2022-11-15T18:46:06.190176","MEAN_ANOMALY":"273.2459","DECAY_DATE":null,"BSTAR":"-0.00004154600000","OBJECT_TYPE":"PAYLOAD","GP_ID":"217903541","CENTER_NAME":"EARTH","COUNTRY_CODE":"US","ELEMENT_SET_NO":"999","MEAN_MOTION_DOT":"-0.00000900","PERIAPSIS":"546.270","APOAPSIS":"548.219","REF_FRAME":"TEME","TIME_SYSTEM":"UTC","TLE_LINE1":"1 47652U 21012AJ  22319.78201609 -.00000900  00000-0 -41546-4 0  9995","ARG_OF_PERICENTER":"86.8691","ECCENTRICITY":"0.00014070","MEAN_ELEMENT_THEORY":"SGP4","EPHEMERIS_TYPE":"0","CLASSIFICATION_TYPE":"U","INCLINATION":"53.0547","LAUNCH_DATE":"2021-02-16","RCS_SIZE":"LARGE","OBJECT_NAME":"STARLINK-2036","PERIOD":"95.593","OBJECT_ID":"2021-012AJ","MEAN_MOTION_DDOT":"0.0000000000000","MEAN_MOTION":"15.06389953","SEMIMAJOR_AXIS":"6925.379"}];
